{
  "norad_id": 47742,
  "name": "STARLINK-2156",
  "history": [
    {
      "epoch": "2026-03-28T18:14:17.497536Z",
      "apogee_km": 476.34172943619797,
      "perigee_km": 474.1142487474435,
      "latitude_deg": -4.2970773352371694e-05,
      "longitude_deg": 5.849009712868297,
      "height_km": 476.2033221305217,
      "semi_major_axis_km": 6853.3649890918205,
      "eccentricity": 0.00016251,
      "inclination_deg": 53.1618,
      "raan_deg": 105.5977,
      "arg_perigee_deg": 93.9928,
      "mean_anomaly_deg": 266.1258,
      "mean_motion_rev_day": 15.30195673
    },
    {
      "epoch": "2026-03-29T05:12:39.028032Z",
      "apogee_km": 475.96078779896743,
      "perigee_km": 474.42427131844124,
      "latitude_deg": -2.118922031598501e-06,
      "longitude_deg": -161.313300850798,
      "height_km": 476.1286541339274,
      "semi_major_axis_km": 6853.329529558704,
      "eccentricity": 0.0001121,
      "inclination_deg": 53.1594,
      "raan_deg": 103.4757,
      "arg_perigee_deg": 92.8282,
      "mean_anomaly_deg": 267.2847,
      "mean_motion_rev_day": 15.30207549
    },
    {
      "epoch": "2026-03-30T04:43:27.452064Z",
      "apogee_km": 476.92863987085366,
      "perigee_km": 473.5430736796061,
      "latitude_deg": 1.434672742740954e-05,
      "longitude_deg": -159.53241788213143,
      "height_km": 477.5015521590791,
      "semi_major_axis_km": 6853.37285677523,
      "eccentricity": 0.000247,
      "inclination_deg": 53.1603,
      "raan_deg": 98.924,
      "arg_perigee_deg": 143.9071,
      "mean_anomaly_deg": 216.2097,
      "mean_motion_rev_day": 15.30193038
    },
    {
      "epoch": "2026-03-30T06:17:30.261120Z",
      "apogee_km": 477.5487790543493,
      "perigee_km": 472.8990478090227,
      "latitude_deg": -4.0992582158101466e-05,
      "longitude_deg": 176.58856380358552,
      "height_km": 478.27355107337473,
      "semi_major_axis_km": 6853.360913431686,
      "eccentricity": 0.00033923,
      "inclination_deg": 53.1596,
      "raan_deg": 98.6211,
      "arg_perigee_deg": 157.7438,
      "mean_anomaly_deg": 202.371,
      "mean_motion_rev_day": 15.30197038
    },
    {
      "epoch": "2026-03-30T10:59:40.771392Z",
      "apogee_km": 476.30524697175315,
      "perigee_km": 474.2086566940079,
      "latitude_deg": 4.75192707530988e-05,
      "longitude_deg": 104.94139513325763,
      "height_km": 476.3674615226575,
      "semi_major_axis_km": 6853.39395183288,
      "eccentricity": 0.00015296,
      "inclination_deg": 53.1605,
      "raan_deg": 97.7108,
      "arg_perigee_deg": 101.7074,
      "mean_anomaly_deg": 258.4099,
      "mean_motion_rev_day": 15.30185973
    },
    {
      "epoch": "2026-03-30T17:15:53.247456Z",
      "apogee_km": 476.019190330494,
      "perigee_km": 474.44332683311495,
      "latitude_deg": -2.9131958313412267e-05,
      "longitude_deg": 9.419749545484287,
      "height_km": 476.3855477510035,
      "semi_major_axis_km": 6853.368258581804,
      "eccentricity": 0.00011497,
      "inclination_deg": 53.1588,
      "raan_deg": 96.4987,
      "arg_perigee_deg": 108.9671,
      "mean_anomaly_deg": 251.1454,
      "mean_motion_rev_day": 15.30194578
    },
    {
      "epoch": "2026-03-31T07:22:21.712800Z",
      "apogee_km": 475.9693880472496,
      "perigee_km": 474.416423490602,
      "latitude_deg": -2.7959378188931456e-05,
      "longitude_deg": 154.49065441976413,
      "height_km": 476.3468633663145,
      "semi_major_axis_km": 6853.3299057689255,
      "eccentricity": 0.0001133,
      "inclination_deg": 53.158,
      "raan_deg": 93.7676,
      "arg_perigee_deg": 109.2363,
      "mean_anomaly_deg": 250.876,
      "mean_motion_rev_day": 15.30207423
    },
    {
      "epoch": "2026-04-01T16:17:29.827680Z",
      "apogee_km": 475.9002003670612,
      "perigee_km": 474.61176248655283,
      "latitude_deg": 5.735730532701441e-05,
      "longitude_deg": 12.98387576038214,
      "height_km": 476.38549312978597,
      "semi_major_axis_km": 6853.392981426807,
      "eccentricity": 9.4e-05,
      "inclination_deg": 53.1578,
      "raan_deg": 87.3965,
      "arg_perigee_deg": 111.0282,
      "mean_anomaly_deg": 249.082,
      "mean_motion_rev_day": 15.30186298
    },
    {
      "epoch": "2026-04-02T09:32:04.882272Z",
      "apogee_km": 475.9736624807274,
      "perigee_km": 474.42741246552214,
      "latitude_deg": -4.285476270855193e-05,
      "longitude_deg": 110.29129321558156,
      "height_km": 476.1643169798808,
      "semi_major_axis_km": 6853.337537473124,
      "eccentricity": 0.00011281,
      "inclination_deg": 53.1591,
      "raan_deg": 84.0582,
      "arg_perigee_deg": 94.8671,
      "mean_anomaly_deg": 265.2458,
      "mean_motion_rev_day": 15.30204867
    },
    {
      "epoch": "2026-04-02T22:04:30.792576Z",
      "apogee_km": 476.00694760798615,
      "perigee_km": 474.4123109142902,
      "latitude_deg": 1.526973800587605e-06,
      "longitude_deg": -80.75835424513183,
      "height_km": 476.0890454555707,
      "semi_major_axis_km": 6853.346629261138,
      "eccentricity": 0.00011634,
      "inclination_deg": 53.1589,
      "raan_deg": 81.6315,
      "arg_perigee_deg": 88.657,
      "mean_anomaly_deg": 271.4564,
      "mean_motion_rev_day": 15.30201822
    },
    {
      "epoch": "2026-04-03T09:02:52.864800Z",
      "apogee_km": 475.99123679781405,
      "perigee_km": 474.38769547126867,
      "latitude_deg": 2.0673136185402077e-05,
      "longitude_deg": 112.07495565324508,
      "height_km": 476.10456393604665,
      "semi_major_axis_km": 6853.326466134541,
      "eccentricity": 0.00011699,
      "inclination_deg": 53.1588,
      "raan_deg": 79.5074,
      "arg_perigee_deg": 91.216,
      "mean_anomaly_deg": 268.8975,
      "mean_motion_rev_day": 15.30208575
    },
    {
      "epoch": "2026-04-04T08:33:41.078016Z",
      "apogee_km": 476.2142531943373,
      "perigee_km": 474.23294664490095,
      "latitude_deg": 2.803190785236699e-05,
      "longitude_deg": 113.85421163002705,
      "height_km": 476.21467178842266,
      "semi_major_axis_km": 6853.360599919619,
      "eccentricity": 0.00014455,
      "inclination_deg": 53.1601,
      "raan_deg": 74.9532,
      "arg_perigee_deg": 95.3999,
      "mean_anomaly_deg": 264.7167,
      "mean_motion_rev_day": 15.30197143
    },
    {
      "epoch": "2026-04-05T08:04:29.025120Z",
      "apogee_km": 476.11969788582337,
      "perigee_km": 474.3413860760311,
      "latitude_deg": 1.550249265216225e-05,
      "longitude_deg": 115.64196379752285,
      "height_km": 476.00036077422845,
      "semi_major_axis_km": 6853.367541980927,
      "eccentricity": 0.00012974,
      "inclination_deg": 53.1606,
      "raan_deg": 70.4064,
      "arg_perigee_deg": 81.7036,
      "mean_anomaly_deg": 278.4112,
      "mean_motion_rev_day": 15.30194818
    },
    {
      "epoch": "2026-04-06T04:27:11.005920Z",
      "apogee_km": 476.1269823485054,
      "perigee_km": 474.3523689921067,
      "latitude_deg": 4.539075493347992e-05,
      "longitude_deg": 165.1860562229566,
      "height_km": 475.97209219057464,
      "semi_major_axis_km": 6853.376675670305,
      "eccentricity": 0.00012947,
      "inclination_deg": 53.161,
      "raan_deg": 66.4623,
      "arg_perigee_deg": 79.2334,
      "mean_anomaly_deg": 280.8813,
      "mean_motion_rev_day": 15.30191759
    },
    {
      "epoch": "2026-04-07T03:57:57.644064Z",
      "apogee_km": 476.16624326304645,
      "perigee_km": 474.25032205582556,
      "latitude_deg": 1.6496676176045137e-06,
      "longitude_deg": 166.97455277886755,
      "height_km": 476.00435159797513,
      "semi_major_axis_km": 6853.345282659436,
      "eccentricity": 0.00013978,
      "inclination_deg": 53.1615,
      "raan_deg": 61.9108,
      "arg_perigee_deg": 83.8875,
      "mean_anomaly_deg": 276.2285,
      "mean_motion_rev_day": 15.30202273
    },
    {
      "epoch": "2026-04-07T21:12:33.322464Z",
      "apogee_km": 476.2623917810479,
      "perigee_km": 474.1913052260297,
      "latitude_deg": -3.0193314995452448e-05,
      "longitude_deg": -95.71888791855585,
      "height_km": 476.2061502319672,
      "semi_major_axis_km": 6853.363848503538,
      "eccentricity": 0.0001511,
      "inclination_deg": 53.1617,
      "raan_deg": 58.5742,
      "arg_perigee_deg": 94.5068,
      "mean_anomaly_deg": 265.6105,
      "mean_motion_rev_day": 15.30196055
    },
    {
      "epoch": "2026-04-08T14:27:08.358912Z",
      "apogee_km": 476.38245854335946,
      "perigee_km": 474.0863049956115,
      "latitude_deg": 6.832955308368263e-06,
      "longitude_deg": 1.5901047204822552,
      "height_km": 476.47803980905815,
      "semi_major_axis_km": 6853.371381769485,
      "eccentricity": 0.00016752,
      "inclination_deg": 53.1637,
      "raan_deg": 55.2373,
      "arg_perigee_deg": 107.5219,
      "mean_anomaly_deg": 252.5965,
      "mean_motion_rev_day": 15.30193532
    }
  ]
}